SPACEBEE-126            
1 52011U 22026D   22250.98271845  .00010193  00000+0  51805-3 0  9991
2 52011  97.5055 249.9245 0025574 352.6822   7.4034 15.16773383 26693
SPACEBEE-118            
1 52012U 22026E   22251.40765400  .00010387  00000+0  52192-3 0  9990
2 52012  97.5060 250.4523 0024561 355.8370   4.2655 15.17192303 26775
SPACEBEE-120            
1 52013U 22026F   22251.42092340  .00009612  00000+0  48583-3 0  9997
2 52013  97.5051 250.4091 0026367 348.2926  11.7691 15.16965978 26762
SPACEBEE-122            
1 52014U 22026G   22251.48592448  .00011845  00000+0  59744-3 0  9990
2 52014  97.5050 250.4804 0025297 350.8988   9.1783 15.17007739 26779
SPACEBEE-119            
1 52015U 22026H   22251.44430563  .00009972  00000+0  50896-3 0  9993
2 52015  97.5061 250.4085 0026062 352.2139   7.8686 15.16621441 26765
SPACEBEE-115            
1 52016U 22026J   22251.42625894  .00010752  00000+0  54374-3 0  9998
2 52016  97.5064 250.4360 0025760 351.5613   8.5183 15.16930654 26767
SPACEBEENZ-14           
1 52018U 22026L   22251.44209382  .00013134  00000+0  64814-3 0  9999
2 52018  97.5059 250.5553 0025193 351.3554   8.7242 15.17745622 26779
SPACEBEENZ-11           
1 52019U 22026M   22250.50962850  .00012217  00000+0  60082-3 0  9996
2 52019  97.5055 249.6506 0025214 354.6807   5.4155 15.17882971 26590
SPACEBEE-127            
1 52020U 22026N   22251.43364022  .00010178  00000+0  51663-3 0  9997
2 52020  97.5052 250.3994 0025738 351.1963   8.8815 15.16815587 26717
SPACEBEE-125            
1 52021U 22026P   22251.46546808  .00012706  00000+0  63311-3 0  9997
2 52021  97.5048 250.4969 0027436 350.8876   9.1856 15.17363874 26641
SPACEBEE-117            
1 52022U 22026Q   22251.23213252  .00009411  00000+0  47732-3 0  9995
2 52022  97.5064 250.2357 0025802 351.9680   8.1136 15.16862277 26605
SPACEBEE-116            
1 52023U 22026R   22250.96048433  .00010647  00000+0  53767-3 0  9990
2 52023  97.5068 249.9861 0025693 353.2777   6.8108 15.16983446 26566
SPACEBEE-113            
1 52024U 22026S   22251.41646939  .00010381  00000+0  52310-3 0  9995
2 52024  97.5062 250.4429 0027321 347.8416  12.2155 15.17027757 26633
SPACEBEE-112            
1 52025U 22026T   22251.27009895  .00011252  00000+0  56258-3 0  9997
2 52025  97.5064 250.3307 0025544 352.0523   8.0302 15.17320781 26610
SPACEBEENZ-13           
1 52026U 22026U   22251.43955697  .00012837  00000+0  63269-3 0  9996
2 52026  97.5056 250.5571 0025196 351.3048   8.7745 15.17794757 26553
SPACEBEE-123            
1 52027U 22026V   22251.30823290  .00009624  00000+0  49043-3 0  9990
2 52027  97.5047 250.2520 0025803 352.2785   7.8047 15.16690773 26522
SPACEBEENZ-12           
1 52028U 22026W   22251.45328153  .00013456  00000+0  66721-3 0  9995
2 52028  97.5074 250.5576 0025331 351.7846   8.2969 15.17570177 26642
SPACEBEE-124            
1 52029U 22026X   22251.24429468  .00008964  00000+0  45765-3 0  9997
2 52029  97.5047 250.1832 0025915 352.8568   7.2292 15.16644650 25234
SPACEBEE-136            
1 52164U 22033H   22251.18549767  .00013530  00000+0  54658-3 0  9999
2 52164  97.3776 331.3075 0010120  89.8006 270.4391 15.24830825 24286
SPACEBEE-138            
1 52166U 22033K   22251.45639578  .00014650  00000+0  59275-3 0  9995
2 52166  97.3796 331.6004 0011415  79.9212 280.3313 15.24746862 24328
SPACEBEE-130            
1 52176U 22033V   22251.45231893  .00015160  00000+0  61087-3 0  9995
2 52176  97.3784 331.5797 0008180  85.8236 274.3937 15.24906248 24322
SPACEBEE-139            
1 52177U 22033W   22251.49169099  .00014685  00000+0  60287-3 0  9990
2 52177  97.3802 331.5576 0011188  85.9573 274.2943 15.24258760 24321
SPACEBEE-129            
1 52179U 22033Y   22251.49693752  .00014135  00000+0  58124-3 0  9997
2 52179  97.3786 331.5255 0009873  89.2860 270.9509 15.24225337 24327
SPACEBEE-134            
1 52180U 22033Z   22251.50644570  .00012547  00000+0  52321-3 0  9993
2 52180  97.3778 331.5131 0010161  88.6630 271.5772 15.23778551 24322
SPACEBEE-131            
1 52181U 22033AA  22251.22493825  .00012631  00000+0  51797-3 0  9998
2 52181  97.3791 331.2843 0010002  90.9970 269.2413 15.24343656 24288
SPACEBEE-128            
1 52182U 22033AB  22251.49406978  .00013721  00000+0  56315-3 0  9993
2 52182  97.3804 331.5613 0010234  89.2034 271.0376 15.24292391 24324
SPACEBEE-133            
1 52183U 22033AC  22251.22285193  .00012610  00000+0  51681-3 0  9996
2 52183  97.3791 331.2892 0010076  90.5023 269.7369 15.24361523 24277
SPACEBEE-132            
1 52185U 22033AE  22251.46928882  .00014416  00000+0  58571-3 0  9994
2 52185  97.3794 331.5804 0009806 100.5794 259.6548 15.24626517 24324
SPACEBEE-137            
1 52186U 22033AF  22251.16169159  .00012280  00000+0  50566-3 0  9999
2 52186  97.3793 331.2259 0010413  89.6881 270.5549 15.24207718 24270
SPACEBEE-135            
1 52187U 22033AG  22251.20557868  .00012596  00000+0  51234-3 0  9996
2 52187  97.3800 331.3356 0009549  86.4874 273.7455 15.24623117 24281
SPACEBEE-143            
1 52394U 22047A   22251.49621076  .00008248  00000+0  45220-3 0  9992
2 52394  97.4479 334.5836 0007512 242.2077 117.8394 15.14412427 20912
SPACEBEENZ-15           
1 52395U 22047B   22251.45937934  .00011699  00000+0  62680-3 0  9995
2 52395  97.4475 334.6301 0007833 239.9948 120.0508 15.15131774 20910
SPACEBEENZ-16           
1 52396U 22047C   22251.45928470  .00011578  00000+0  62040-3 0  9997
2 52396  97.4474 334.6298 0007804 240.3965 119.6490 15.15128442 20910
SPACEBEENZ-17           
1 52397U 22047D   22251.46088712  .00011152  00000+0  59824-3 0  9999
2 52397  97.4473 334.6282 0007837 240.0609 119.9845 15.15100373 20911
SPACEBEENZ-18           
1 52398U 22047E   22251.46157469  .00011131  00000+0  59730-3 0  9999
2 52398  97.4474 334.6278 0007774 240.2378 119.8081 15.15090252 20918
SPACEBEE-140            
1 52399U 22047F   22251.47561238  .00009004  00000+0  48807-3 0  9993
2 52399  97.4476 334.6105 0007679 240.0031 120.0440 15.14788143 20935
SPACEBEE-141            
1 52400U 22047G   22251.48730438  .00007966  00000+0  43536-3 0  9996
2 52400  97.4478 334.5957 0007611 239.6423 120.4057 15.14536873 20916
SPACEBEE-142            
1 52401U 22047H   22251.49462949  .00008061  00000+0  44234-3 0  9990
2 52401  97.4476 334.5836 0007453 240.4258 119.6232 15.14388030 20916
SPACEBEENZ-20           
1 52402U 22047J   22251.46716408  .00010834  00000+0  58254-3 0  9998
2 52402  97.4467 334.6082 0008464 243.9468 116.0893 15.15017987 20910
SPACEBEENZ-22           
1 52403U 22047K   22251.47083427  .00010143  00000+0  54688-3 0  9998
2 52403  97.4468 334.6038 0008459 243.5214 116.5151 15.14940184 20917
SPACEBEENZ-19           
1 52404U 22047L   22251.20145092  .00009292  00000+0  49999-3 0  9999
2 52404  97.4470 334.3525 0008500 245.0616 114.9734 15.15036186 20872
SPACEBEENZ-21           
1 52405U 22047M   22251.46798961  .00010420  00000+0  56070-3 0  9990
2 52405  97.4469 334.6077 0008433 243.9941 116.0423 15.15004151 20919
SPACEBEE-148            
1 52406U 22047N   22251.48213691  .00008916  00000+0  48441-3 0  9995
2 52406  97.4471 334.5900 0008304 243.8010 116.2369 15.14705367 20917
SPACEBEE-149            
1 52407U 22047P   22251.17063406  .00008085  00000+0  44452-3 0  9994
2 52407  97.4469 334.2386 0008241 245.2772 114.7603 15.14313434 20869
SPACEBEE-153            
1 52408U 22047Q   22251.48486362  .00008259  00000+0  44983-3 0  9991
2 52408  97.4501 334.6338 0008248 256.8123 103.2189 15.14644217 20917
SPACEBEE-150            
1 52409U 22047R   22251.23260127  .00007552  00000+0  41438-3 0  9991
2 52409  97.4472 334.3121 0008166 245.9197 114.1181 15.14405482 20878
SPACEBEE-144            
1 52410U 22047S   22251.49604037  .00008058  00000+0  44161-3 0  9991
2 52410  97.4479 334.5842 0007543 243.0978 116.9483 15.14435146 20913
SPACEBEE-145            
1 52411U 22047T   22251.49958650  .00008202  00000+0  45024-3 0  9995
2 52411  97.4481 334.5778 0007483 242.8406 117.2063 15.14367805 20915
SPACEBEE-146            
1 52412U 22047U   22251.50847439  .00008236  00000+0  45451-3 0  9991
2 52412  97.4472 334.5619 0007499 243.5710 116.4752 15.14179011 20919
SPACEBEE-151            
1 52413U 22047V   22251.17064427  .00007687  00000+0  42242-3 0  9997
2 52413  97.4471 334.2413 0008139 247.2239 112.8133 15.14349544 20864
SPACEBEE-152            
1 52414U 22047W   22251.17741350  .00007841  00000+0  43212-3 0  9995
2 52414  97.4468 334.2292 0008140 246.8432 113.1943 15.14239458 20863
SPACEBEE-147            
1 52415U 22047X   22251.50518604  .00008358  00000+0  45956-3 0  9998
2 52415  97.4478 334.5717 0007471 245.7104 114.3348 15.14305533 20916
SPACEBEE-155            
1 52416U 22047Y   22251.45072767  .00007839  00000+0  43525-3 0  9991
2 52416  97.4461 334.4741 0008588 251.0912 108.9389 15.13966887 20909
SPACEBEE-154            
1 52417U 22047Z   22251.18042357  .00007579  00000+0  41856-3 0  9990
2 52417  97.4470 334.2276 0008077 248.9666 111.0702 15.14175247 20867
